54P/de Vico-Swift-NEAT,e,6.0577,358.8314,1.7945,3.795194,0.1333071,0.42477483,91.1371,02/28.0/2019,2000,g 10.0,6.0
# From MPC 31070
55P/Tempel-Tuttle,e,162.3382,235.4058,172.5847,10.34123,0.0296378,0.90703852,227.6813,02/28.0/2019,2000,g 10.0,10.0
# From MPC101100
56P/Slaughter-Burnham,e,8.1514,345.9726,44.1169,5.076178,0.0861785,0.50621861,82.2985,02/28.0/2019,2000,g  8.5,6.0
# From MPC 98565
57P/du Toit-Neujmin-Delporte,e,2.8489,188.7980,115.1466,3.448882,0.1538816,0.50029310,211.8723,02/28.0/2019,2000,g 12.5,6.0
# From MPC 65938
58P/Jackson-Neujmin,e,13.1050,159.2062,200.4200,4.081138,0.1195452,0.66315521,305.9713,02/28.0/2019,2000,g 15.5,6.0
# From MPC111774
59P/Kearns-Kwee,e,9.3400,312.8261,127.6975,4.493646,0.1034679,0.47509623,16.9946,02/28.0/2019,2000,g  7.0,6.0
# From MPC 94675
60P/Tsuchinshan,e,3.6065,267.5839,216.5541,3.509944,0.1498835,0.53769660,11.8058,02/28.0/2019,2000,g 11.5,6.0
# From MPC 95213
61P/Shajn-Schaldach,e,6.0001,163.0027,221.9706,3.683407,0.1394214,0.42401454,173.8187,02/28.0/2019,2000,g  6.0,10.0
# From MPC109147
62P/Tsuchinshan,e,9.7291,90.1862,30.4365,3.443890,0.1542162,0.59891272,72.2106,02/28.0/2019,2000,g  8.0,10.0
# From MPC 84320
63P/Wild,e,19.7603,358.0031,169.1874,5.602037,0.0743336,0.64982648,159.8433,02/28.0/2019,2000,g 10.5,6.0
# From MPC111774
64P/Swift-Gehrels,e,8.9490,299.9959,97.1509,4.457867,0.1047161,0.68748076,12.1583,02/28.0/2019,2000,g  9.5,12.0
# From MPC104795
65P/Gunn,e,9.1851,62.0191,213.6328,3.881285,0.1288964,0.25005093,64.2922,02/28.0/2019,2000,g  5.0,6.0
# From MPC109147
66P/du Toit,e,18.6736,21.8961,257.2252,6.055326,0.0661451,0.78692328,18.8397,02/28.0/2019,2000,g 12.0,3.6
# From MPC 89011
67P/Churyumov-Gerasimenko,e,4.5243,42.3847,17.4372,3.402621,0.1570304,0.67110559,207.9038,02/28.0/2019,2000,g 11.0,4.0
# From MPC 75716
68P/Klemola,e,11.1119,175.1220,153.0327,4.953334,0.0894041,0.63794435,337.2895,02/28.0/2019,2000,g 10.0,4.0
# From MPC102100
69P/Taylor,e,22.0321,104.8303,343.5734,3.891742,0.1283772,0.41327324,357.6533,02/28.0/2019,2000,g  9.5,12.0
# From MPC 92276
70P/Kojima,e,6.5984,119.2687,1.9017,3.674275,0.1399415,0.45317217,222.9030,02/28.0/2019,2000,g 11.0,6.0
# From MPC107051
71P/Clark,e,9.4448,59.4450,208.9648,3.137470,0.1773514,0.49432541,107.7716,02/28.0/2019,2000,g  9.8,6.0
# From MPC 89011
72P/Denning-Fujikawa,e,10.9178,26.6981,346.6681,4.312366,0.1100603,0.81756920,187.1555,02/28.0/2019,2000,g 17.5,10.0
# From MPC106348
73P/Schwassmann-Wachmann,e,11.2383,69.6578,199.4094,3.092923,0.1811967,0.68574649,129.1913,02/28.0/2019,2000,g 11.5,6.0
# From MPC106348
73P-BT/Schwassmann-Wachmann,e,11.2404,69.6603,199.3909,3.094481,0.1810599,0.68595005,129.0946,02/28.0/2019,2000,g 11.5,6.0
# From MPC102956
74P/Smirnova-Chernykh,e,6.6545,77.0466,87.5619,4.165006,0.1159526,0.15057498,45.7499,02/28.0/2019,2000,g  5.0,6.0
# From MPC102100
76P/West-Kohoutek-Ikemura,e,30.4571,84.1255,0.0381,3.474115,0.1522081,0.53810280,323.4442,02/28.0/2019,2000,g  8.0,12.0
# From MPC 10028
77P/Longmore,e,24.3391,14.8091,196.8452,3.618617,0.1431826,0.35308322,146.0847,02/28.0/2019,2000,g  7.0,8.0
# From MPC102101
78P/Gehrels,e,6.2488,210.5481,192.6850,3.740072,0.1362649,0.46155512,355.4079,02/28.0/2019,2000,g  5.5,8.0
# From MPC 94675
79P/du Toit-Hartley,e,3.1479,280.5245,281.8405,2.943569,0.1951609,0.61922786,32.7214,02/28.0/2019,2000,g 16.0,4.0
# From MPC 89313
80P/Peters-Hartley,e,29.9491,259.8217,339.2308,4.024155,0.1220933,0.59943369,191.6730,02/28.0/2019,2000,g  9.0,8.0
# From MPC105241
81P/Wild,e,3.2379,136.1192,41.7227,3.449033,0.1538714,0.53773692,146.6478,02/28.0/2019,2000,g  7.0,6.0
# From MPC 75717
82P/Gehrels,e,1.1283,239.3171,227.1320,4.140115,0.1169999,0.12220733,28.6414,02/28.0/2019,2000,g  5.0,8.0
# From MPC105241
84P/Giclas,e,7.5420,108.1969,281.3333,3.556666,0.1469398,0.51598363,292.2067,02/28.0/2019,2000,g  9.5,8.0
# From MPC 79347
86P/Wild,e,15.4776,72.3813,179.2532,3.605158,0.1439851,0.37266755,205.2167,02/28.0/2019,2000,g 11.0,6.0
# From MPC105241
87P/Bus,e,2.6021,181.8716,24.8768,3.439480,0.1545130,0.38941868,292.6156,02/28.0/2019,2000,g  7.2,10.0
# From MPC105241
88P/Howell,e,4.3835,56.6946,235.8762,3.106078,0.1800469,0.56404062,256.1811,02/28.0/2019,2000,g 11.0,6.0
# From MPC 10028
89P/Russell,e,12.0749,41.4399,250.1966,3.753574,0.1355304,0.40854093,109.0989,02/28.0/2019,2000,g 11.5,6.0
# From MPC107051
90P/Gehrels,e,9.6357,13.2350,29.1968,6.061010,0.0660521,0.50938754,40.8919,02/28.0/2019,2000,g  8.5,6.0
# From MPC105241
91P/Russell,e,14.0917,247.8335,354.6808,3.892722,0.1283288,0.33065705,280.4370,02/28.0/2019,2000,g  7.5,6.0
# From MPC 88331
92P/Sanguin,e,19.4565,181.4243,163.6967,5.347900,0.0796947,0.65971490,116.3248,02/28.0/2019,2000,g 12.0,6.0
# From NK 2707
93P/Lovas,e,12.1997,339.6160,74.9278,4.387147,0.1072583,0.61208518,78.1729,02/28.0/2019,2000,g  9.5,6.0
# From MPC 84320
94P/Russell,e,6.1879,70.8620,92.5748,3.507241,0.1500568,0.36476081,128.1571,02/28.0/2019,2000,g  9.0,6.0
# From MPC 75717
95P/Chiron,e,6.9475,209.2108,339.8079,13.66646,0.0195083,0.38070235,163.9386,02/28.0/2019,2000,g  6.3,2.0
# From MPC106348
96P/Machholz,e,58.2996,94.2663,14.7563,3.033729,0.1865258,0.95933796,91.0295,02/28.0/2019,2000,g 13.0,4.8
# From MPC 77020
97P/Metcalf-Brewington,e,17.8429,184.9689,228.3582,4.796509,0.0938245,0.45912768,258.3243,02/28.0/2019,2000,g  5.5,6.0
# From MPC 83523
98P/Takamizawa,e,10.5595,114.7064,157.8614,3.801172,0.1329927,0.56208448,269.9769,02/28.0/2019,2000,g  9.0,8.0
# From MPC 75718
99P/Kowal,e,4.3379,28.1565,174.7561,6.119133,0.0651132,0.23092819,285.9041,02/28.0/2019,2000,g  4.5,6.0
# From MPC 84321
100P/Hartley,e,25.5854,37.7240,181.9823,3.430508,0.1551195,0.41313168,164.7061,02/28.0/2019,2000,g  9.0,8.0
# From MPC105241
101P/Chernykh,e,5.0529,116.1865,277.7360,5.795068,0.0706507,0.59526779,337.4197,02/28.0/2019,2000,g 10.0,4.8
# From MPC 86232
102P/Shoemaker,e,25.8777,339.4969,20.6112,3.810585,0.1325002,0.45786652,267.9564,02/28.0/2019,2000,g  6.5,8.0
# From MPC110085
103P/Hartley,e,13.5917,219.7271,181.3280,3.477489,0.1519867,0.69291996,103.1717,02/28.0/2019,2000,g  8.5,8.0
# From MPC 10028
104P/Kowal,e,10.1116,234.7710,200.6972,3.207442,0.1715797,0.66746926,179.2583,02/28.0/2019,2000,g 16.0,4.0
# From MPC109147
105P/Singer Brewster,e,9.1748,192.4199,46.4517,3.466587,0.1527042,0.41026426,30.8114,02/28.0/2019,2000,g 11.5,6.0
# From MPC 92276
106P/Schuster,e,19.9508,49.5021,353.6509,3.744488,0.1360240,0.59927199,237.5075,02/28.0/2019,2000,g 14.0,4.8
# From MPC 94676
107P/Wilson-Harrington,e,2.7982,266.8177,95.3944,2.626752,0.2315131,0.63083354,64.9332,02/28.0/2019,2000,g 16.0,2.0
# From MPC 89313
108P/Ciffreo,e,12.0071,51.6348,354.1541,3.705024,0.1382030,0.56892817,233.0953,02/28.0/2019,2000,g  8.0,12.0
# From ICA 105, 420
109P/Swift-Tuttle,e,113.6580,139.3011,152.9027,26.08419,0.0073984,0.96352829,70.9323,02/28.0/2019,2000,g  4.5,6.0
# From MPC 91618
110P/Hartley,e,11.7046,287.5283,167.3738,3.602842,0.1441240,0.31694164,221.0633,02/28.0/2019,2000,g  1.0,12.0
# From MPC 75718
111P/Helin-Roman-Crockett,e,4.2275,89.7630,1.5074,4.141538,0.1169396,0.10521983,261.5073,02/28.0/2019,2000,g  5.0,8.0
# From MPC105241
112P/Urata-Niijima,e,24.1910,31.8589,21.4689,3.526103,0.1488544,0.58958946,308.6493,02/28.0/2019,2000,g 14.0,6.0
# From MPC 92984
113P/Spitaler,e,4.1183,333.1346,90.8029,3.590778,0.1448509,0.47359643,195.0828,02/28.0/2019,2000,g 13.5,4.0
# From MPC105241
114P/Wiseman-Skiff,e,18.2725,271.0606,172.8311,3.545860,0.1476120,0.55460573,312.7446,02/28.0/2019,2000,g 11.5,6.0
# From MPC105241
115P/Maury,e,11.6750,176.0394,121.0461,4.271874,0.1116289,0.51850600,302.1808,02/28.0/2019,2000,g 10.5,6.0
# From MPC106348
116P/Wild,e,3.6063,21.0018,173.4081,3.486635,0.1513890,0.37157488,173.1409,02/28.0/2019,2000,g  2.5,10.0
# From MPC 95735
117P/Helin-Roman-Alu,e,8.7015,58.8744,222.5449,4.089966,0.1191584,0.25538145,214.1099,02/28.0/2019,2000,g  2.5,8.0
# From MPC 95735
118P/Shoemaker-Levy,e,8.5322,149.6549,304.1780,3.452904,0.1536128,0.43768310,150.2822,02/28.0/2019,2000,g 12.0,4.0
# From MPC 84628
119P/Parker-Hartley,e,5.8007,240.5062,181.1285,4.025323,0.1220402,0.37845404,206.8741,02/28.0/2019,2000,g  3.5,8.0
# From MPC 80901
120P/Mueller,e,8.4769,359.9728,34.0620,3.998252,0.1232817,0.37548112,261.9797,02/28.0/2019,2000,g 12.0,4.0
# From MPC 10028
121P/Shoemaker-Holt,e,20.1641,94.1421,11.2534,4.589955,0.1002285,0.18376057,201.3513,02/28.0/2019,2000,g  6.5,8.0
# From MPC 75718
122P/de Vico,e,84.5520,79.4990,13.0387,17.64591,0.0132965,0.96239381,113.7247,02/28.0/2019,2000,g  7.5,5.2
# From MPC102101
123P/West-Hartley,e,15.3596,46.4994,103.0111,3.857436,0.1300936,0.44862848,2.9772,02/28.0/2019,2000,g  4.0,10.0
# From MPC105242
124P/Mrkos,e,31.5134,0.3847,183.8380,3.318749,0.1630206,0.50362231,290.9049,02/28.0/2019,2000,g 13.5,2.8
# From MPC 94676
125P/Spacewatch,e,9.9893,153.1741,87.1699,3.124171,0.1784851,0.51343153,32.8535,02/28.0/2019,2000,g 13.0,6.0
# From MPC 66205
126P/IRAS,e,45.8050,357.8249,356.4977,5.643094,0.0735238,0.69546759,243.1357,02/28.0/2019,2000,g  6.0,8.0
# From MPC 84321
127P/Holt-Olmstead,e,14.3007,13.6512,6.6262,3.448723,0.1538922,0.35988933,165.9209,02/28.0/2019,2000,g 11.0,6.0
# From MPC 75719
128P/Shoemaker-Holt,e,4.3648,214.2951,210.4986,4.496766,0.1033603,0.32043557,80.4938,02/28.0/2019,2000,g  8.5,4.0
# From MPC 10028
129P/Shoemaker-Levy,e,3.4441,184.8911,308.6373,4.278175,0.1113823,0.08413268,206.2758,02/28.0/2019,2000,g 11.0,4.0
# From MPC 78188
130P/McNaught-Hughes,e,6.0653,70.2557,245.9251,3.383342,0.1583745,0.46101086,63.6946,02/28.0/2019,2000,g 10.0,6.0
# From MPC102101
131P/Mueller,e,7.3538,214.1921,179.0746,3.681425,0.1395340,0.34332461,4.8533,02/28.0/2019,2000,g 11.0,4.0
# From MPC 92985
132P/Helin-Roman-Alu,e,5.3934,174.5035,216.3662,3.869798,0.1294707,0.56760500,232.0002,02/28.0/2019,2000,g 11.0,6.0
# From MPC 94676
133P/Elst-Pizarro,e,1.3893,160.1351,131.5017,3.162044,0.1752880,0.15724184,28.0827,02/28.0/2019,2000,g 15.4,2.0
# From MPC 89012
